NORAD_CAT_ID,OBJECT_NAME,OBJECT_TYPE,EPOCH,MEAN_MOTION,ECCENTRICITY,INCLINATION,RA_OF_ASC_NODE,ARG_OF_PERICENTER,MEAN_ANOMALY,BSTAR,MEAN_MOTION_DOT,MEAN_MOTION_DDOT,TLE_LINE0,TLE_LINE1,TLE_LINE2,SEMIMAJOR_AXIS,PERIOD,APOGEE,PERIGEE,DECAYED
56458.0,STARLINK-6050,PAYLOAD,2024-07-30 15:57:08,14.98330135,0.0003227,69.9998,184.6222,269.8261,90.2528,5.406e-05,5.52e-06,0.0,0 STARLINK-6050,1 56458U 23064L   24212.66468681  .00000552  00000-0  54060-4 0  9990,2 56458  69.9998 184.6222 0003227 269.8261  90.2528 14.98330135 67313,6950.192,96.107,574.3,569.815,0.0
56458.0,STARLINK-6050,PAYLOAD,2024-07-31 07:58:29,14.98335491,0.0003218,69.9998,182.9394,270.3218,89.7572,7.6685e-05,8.22e-06,0.0,0 STARLINK-6050,1 56458U 23064L   24213.33228237  .00000822  00000-0  76685-4 0  9993,2 56458  69.9998 182.9394 0003218 270.3218  89.7572 14.98335491 67416,6950.176,96.107,574.277,569.804,0.0
56458.0,STARLINK-6050,PAYLOAD,2024-07-31 22:23:42,14.98327218,0.0003139,70.0001,181.4245,270.4478,89.6321,-1.1792e-05,-2.34e-06,0.0,0 STARLINK-6050,1 56458U 23064L   24213.93312978 -.00000234  00000-0 -11792-4 0  9992,2 56458  70.0001 181.4245 0003139 270.4478  89.6321 14.98327218 67503,6950.201,96.107,574.248,569.885,0.0
56458.0,STARLINK-6050,PAYLOAD,2024-08-01 04:48:14,14.98332543,0.0003087,69.9999,180.7515,270.4486,89.6319,4.8031e-05,4.8e-06,0.0,0 STARLINK-6050,1 56458U 23064L   24214.20016496  .00000480  00000-0  48031-4 0  9996,2 56458  69.9999 180.7515 0003087 270.4486  89.6319 14.98332543 67907,6950.185,96.107,574.196,569.905,0.0
56458.0,STARLINK-6050,PAYLOAD,2024-08-01 08:00:30,14.98334797,0.000307,70.0001,180.4148,270.2761,89.8046,6.61e-05,6.96e-06,0.0,0 STARLINK-6050,1 56458U 23064L   24214.33368275  .00000696  00000-0  66100-4 0  9991,2 56458  70.0001 180.4148 0003070 270.2761  89.8046 14.98334797 67563,6950.178,96.107,574.177,569.909,0.0
56458.0,STARLINK-6050,PAYLOAD,2024-08-01 22:25:42,14.9833375,0.000294,70.0004,178.8998,271.4921,88.5901,-3.9434e-06,-1.4e-06,0.0,0 STARLINK-6050,1 56458U 23064L   24214.93452441 -.00000140  00000-0 -39434-5 0  9993,2 56458  70.0004 178.8998 0002940 271.4921  88.5901 14.98333750 67650,6950.181,96.107,574.09,570.003,0.0
56458.0,STARLINK-6050,PAYLOAD,2024-08-02 04:50:14,14.98336164,0.0002904,70.0003,178.2267,271.2363,88.8464,3.8801e-05,3.7e-06,0.0,0 STARLINK-6050,1 56458U 23064L   24215.20156112  .00000370  00000-0  38801-4 0  9999,2 56458  70.0003 178.2267 0002904 271.2363  88.8464 14.98336164 68054,6950.174,96.107,574.057,570.02,0.0
56458.0,STARLINK-6050,PAYLOAD,2024-08-02 14:27:03,14.98331749,0.0002846,70.0006,177.2169,271.7646,88.3187,3.1933e-05,2.88e-06,0.0,0 STARLINK-6050,1 56458U 23064L   24215.60212285  .00000288  00000-0  31933-4 0  9994,2 56458  70.0006 177.2169 0002846 271.7646  88.3187 14.98331749 67758,6950.187,96.107,574.031,570.074,0.0
56458.0,STARLINK-6050,PAYLOAD,2024-08-02 22:27:43,14.98330792,0.0002775,70.0006,176.3755,272.4358,87.6483,1.6207e-07,-9.1e-07,0.0,0 STARLINK-6050,1 56458U 23064L   24215.93592423 -.00000091  00000-0  16207-6 0  9997,2 56458  70.0006 176.3755 0002775 272.4358  87.6483 14.98330792 67802,6950.19,96.107,573.984,570.127,0.0
56458.0,STARLINK-6050,PAYLOAD,2024-08-03 04:52:15,14.98331946,0.0002749,70.0006,175.7032,266.679,93.4055,1.4305e-05,7.8e-07,0.0,0 STARLINK-6050,1 56458U 23064L   24216.20296255  .00000078  00000-0  14305-4 0  9991,2 56458  70.0006 175.7032 0002749 266.6790  93.4055 14.98331946 68206,6950.187,96.107,573.962,570.141,0.0
56458.0,STARLINK-6050,PAYLOAD,2024-08-03 14:29:04,14.98329155,0.0002736,70.0007,174.6933,267.9958,92.0888,-2.2193e-05,-3.58e-06,0.0,0 STARLINK-6050,1 56458U 23064L   24216.60352487 -.00000358  00000-0 -22193-4 0  9992,2 56458  70.0007 174.6933 0002736 267.9958  92.0888 14.98329155 67905,6950.196,96.107,573.962,570.159,0.0
56458.0,STARLINK-6050,PAYLOAD,2024-08-03 22:29:44,14.98329776,0.0002737,70.0005,173.8514,266.4821,93.6025,-4.9249e-05,-6.81e-06,0.0,0 STARLINK-6050,1 56458U 23064L   24216.93732516 -.00000681  00000-0 -49249-4 0  9993,2 56458  70.0005 173.8514 0002737 266.4821  93.6025 14.98329776 67957,6950.194,96.107,573.961,570.156,0.0
56458.0,STARLINK-6050,PAYLOAD,2024-08-04 04:54:17,14.98327828,0.0002665,70.0007,173.1779,263.6683,96.4173,-1.6193e-05,-2.86e-06,0.0,0 STARLINK-6050,1 56458U 23064L   24217.20436546 -.00000286  00000-0 -16193-4 0  9991,2 56458  70.0007 173.1779 0002665 263.6683  96.4173 14.98327828 68356,6950.2,96.107,573.917,570.212,0.0
56458.0,STARLINK-6050,PAYLOAD,2024-08-04 14:31:05,14.9833406,0.000297,70.0002,172.1681,270.2226,89.8593,-3.847e-05,-5.52e-06,0.0,0 STARLINK-6050,1 56458U 23064L   24217.60492129 -.00000552  00000-0 -38470-4 0  9992,2 56458  70.0002 172.1681 0002970 270.2226  89.8593 14.98334060 68053,6950.18,96.107,574.11,569.981,0.0
56458.0,STARLINK-6050,PAYLOAD,2024-08-04 22:31:45,14.98329682,0.0002939,70.0003,171.3265,269.4379,90.6443,5.112e-05,5.17e-06,0.0,0 STARLINK-6050,1 56458U 23064L   24217.93872175  .00000517  00000-0  51120-4 0  9997,2 56458  70.0003 171.3265 0002939 269.4379  90.6443 14.98329682 68101,6950.194,96.107,574.102,570.016,0.0
56458.0,STARLINK-6050,PAYLOAD,2024-08-05 04:56:17,14.98337915,0.0002891,70.0003,170.6534,268.6964,91.3864,0.00010388,1.147e-05,0.0,0 STARLINK-6050,1 56458U 23064L   24218.20575487  .00001147  00000-0  10388-3 0  9994,2 56458  70.0003 170.6534 0002891 268.6964  91.3864 14.98337915 68507,6950.168,96.106,574.043,570.024,0.0
56458.0,STARLINK-6050,PAYLOAD,2024-08-05 14:33:06,14.98326085,0.0002028,70.0018,169.643,284.5402,75.5532,-2.0399e-06,-1.17e-06,0.0,0 STARLINK-6050,1 56458U 23064L   24218.60632772 -.00000117  00000-0 -20399-5 0  9992,2 56458  70.0018 169.6430 0002028 284.5402  75.5532 14.98326085 68560,6950.205,96.107,573.479,570.66,0.0
56458.0,STARLINK-6050,PAYLOAD,2024-08-05 22:33:47,14.98320192,0.0002274,70.0004,168.8017,279.5702,80.52,-1.7646e-05,-3.03e-06,0.0,0 STARLINK-6050,1 56458U 23064L   24218.94013235 -.00000303  00000-0 -17646-4 0  9993,2 56458  70.0004 168.8017 0002274 279.5702  80.5200 14.98320192 68254,6950.223,96.108,573.669,570.508,0.0
56458.0,STARLINK-6050,PAYLOAD,2024-08-06 04:58:20,14.98314985,0.0003005,70.0001,168.1286,274.4387,85.6429,-0.00013855,-1.745e-05,0.0,0 STARLINK-6050,1 56458U 23064L   24219.20717992 -.00001745  00000-0 -13855-3 0  9992,2 56458  70.0001 168.1286 0003005 274.4387  85.6429 14.98314985 68654,6950.239,96.108,574.193,570.016,0.0
56458.0,STARLINK-6050,PAYLOAD,2024-08-06 14:35:08,14.98324478,0.0002965,70.0001,167.1183,274.9831,85.099,-3.3306e-05,-4.9e-06,0.0,0 STARLINK-6050,1 56458U 23064L   24219.60773380 -.00000490  00000-0 -33306-4 0  9999,2 56458  70.0001 167.1183 0002965 274.9831  85.0990 14.98324478 68354,6950.21,96.107,574.136,570.014,0.0
56458.0,STARLINK-6050,PAYLOAD,2024-08-06 20:59:40,14.9832622,0.0003178,69.9998,166.4451,274.9813,85.0983,1.9998e-05,1.46e-06,0.0,0 STARLINK-6050,1 56458U 23064L   24219.87477166  .00000146  00000-0  19998-4 0  9998,2 56458  69.9998 166.4451 0003178 274.9813  85.0983 14.98326220 68756,6950.205,96.107,574.278,569.861,0.0
56458.0,STARLINK-6050,PAYLOAD,2024-08-07 03:24:11,14.98338111,0.000306,69.9998,165.7719,274.9368,85.1442,3.3501e-05,3.07e-06,0.0,0 STARLINK-6050,1 56458U 23064L   24220.14180450  .00000307  00000-0  33501-4 0  9992,2 56458  69.9998 165.7719 0003060 274.9368  85.1442 14.98338111 68797,6950.168,96.106,574.16,569.906,0.0
56458.0,STARLINK-6050,PAYLOAD,2024-08-07 21:01:40,14.98325716,0.0002907,70.0005,163.9202,277.6366,82.4462,0.00026263,3.042e-05,0.0,0 STARLINK-6050,1 56458U 23064L   24220.87616466  .00003042  00000-0  26263-3 0  9998,2 56458  70.0005 163.9202 0002907 277.6366  82.4462 14.98325716 68545,6950.206,96.107,574.092,570.051,0.0
56458.0,STARLINK-6050,PAYLOAD,2024-08-08 06:38:28,14.98338695,0.0002726,70.001,162.9102,277.2785,82.8064,0.00032986,3.846e-05,0.0,0 STARLINK-6050,1 56458U 23064L   24221.27671558  .00003846  00000-0  32986-3 0  9997,2 56458  70.0010 162.9102 0002726 277.2785  82.8064 14.98338695 68608,6950.166,96.106,573.926,570.136,0.0
56458.0,STARLINK-6050,PAYLOAD,2024-08-08 21:03:41,14.98337587,0.0002378,70.0027,161.3974,260.9084,99.1806,5.5225e-05,5.66e-06,0.0,0 STARLINK-6050,1 56458U 23064L   24221.87756034  .00000566  00000-0  55225-4 0  9994,2 56458  70.0027 161.3974 0002378 260.9084  99.1806 14.98337587 69054,6950.169,96.107,573.687,570.382,0.0
56458.0,STARLINK-6050,PAYLOAD,2024-08-08 22:39:49,14.98336744,0.0002385,70.0024,161.2295,258.3936,101.6956,3.6165e-05,3.39e-06,0.0,0 STARLINK-6050,1 56458U 23064L   24221.94432078  .00000339  00000-0  36165-4 0  9991,2 56458  70.0024 161.2295 0002385 258.3936 101.6956 14.98336744 68701,6950.172,96.107,573.695,570.379,0.0
56458.0,STARLINK-6050,PAYLOAD,2024-08-09 13:05:01,14.98336124,0.0002279,70.0022,159.7086,274.833,85.2569,-7.9127e-05,-1.037e-05,0.0,0 STARLINK-6050,1 56458U 23064L   24222.54516098 -.00001037  00000-0 -79127-4 0  9996,2 56458  70.0022 159.7086 0002279 274.8330  85.2569 14.98336124 68790,6950.174,96.107,573.623,570.455,0.0
56458.0,STARLINK-6050,PAYLOAD,2024-08-09 21:05:42,14.98329194,0.0002492,70.0026,158.8733,256.8592,103.2289,-0.00012803,-1.62e-05,0.0,0 STARLINK-6050,1 56458U 23064L   24222.87896586 -.00001620  00000-0 -12803-3 0  9990,2 56458  70.0026 158.8733 0002492 256.8592 103.2289 14.98329194 69206,6950.195,96.107,573.792,570.328,0.0
56458.0,STARLINK-6050,PAYLOAD,2024-08-10 05:06:22,14.98336822,0.0002541,70.0017,158.0314,258.6039,101.4835,-7.1475e-05,-9.46e-06,0.0,0 STARLINK-6050,1 56458U 23064L   24223.21275846 -.00000946  00000-0 -71475-4 0  9990,2 56458  70.0017 158.0314 0002541 258.6039 101.4835 14.98336822 69252,6950.172,96.107,573.803,570.271,0.0
56458.0,STARLINK-6050,PAYLOAD,2024-08-10 22:43:51,14.98325825,0.0002552,70.0022,156.1806,243.8973,116.1924,2.9572e-05,2.6e-06,0.0,0 STARLINK-6050,1 56458U 23064L   24223.94712140  .00000260  00000-0  29572-4 0  9991,2 56458  70.0022 156.1806 0002552 243.8973 116.1924 14.98325825 69004,6950.206,96.107,573.844,570.297,0.0
